NUSAT-1 (FRESCO)        
1 41557U 16033B   21324.52711115  .00003474  00000+0  12013-3 0  9997
2 41557  97.3938  57.6789 0013571  46.5010  70.7913 15.30504264305395
BEESAT-4                
1 41619U 16040W   21323.93515278  .00002929  00000+0  11434-3 0  9990
2 41619  97.2499  15.5912 0011569 135.2764 224.9410 15.26618723288726
CAS-2T & KS-1Q          
1 41847U 16066G   21324.45174038  .00000216  00000+0  41707-4 0  9998
2 41847  98.5822  24.0782 0365942 114.5647 249.4138 14.38287044264307
NAYIF-1 (EO-88)         
1 42017U 17008BX  21324.41453872  .00003783  00000+0  13519-3 0  9998
2 42017  97.2992  29.1799 0004100 275.3815  84.6958 15.29430845265089
ZHUHAI-1 02 (CAS-4B)    
1 42759U 17034B   21324.57484552  .00000937  00000+0  69060-4 0  9997
2 42759  43.0183  42.5954 0007358  51.0851  80.9396 15.10551522244754
ZHUHAI-1 01 (CAS-4A)    
1 42761U 17034D   21324.62544269  .00001055  00000+0  75870-4 0  9996
2 42761  43.0186  41.2569 0007599  54.1882  91.6540 15.10639331244769
MAX VALIER SAT          
1 42778U 17036P   21323.85928574  .00001874  00000+0  79358-4 0  9999
2 42778  97.2361   7.2698 0011259 356.7780   3.3383 15.24311455244959
RADFXSAT (FOX-1B)       
1 43017U 17073E   21323.99905751  .00000819  00000+0  67428-4 0  9997
2 43017  97.6925 221.7181 0254192 152.3791 209.1197 14.79954124216125
FOX-1D (AO-92)          
1 43137U 18004AC  21324.43695712  .00002535  00000+0  10106-3 0  9995
2 43137  97.3936  36.8214 0009181  31.0519 329.1260 15.26088971214433
DIWATA-2B               
1 43678U 18084H   21324.00026605  .00000584  00000+0  63587-4 0  9999
2 43678  97.9435  90.2761 0008444 256.2871 103.7390 14.91838781166627
ES'HAIL 2               
1 43700U 18090A   21324.09493899  .00000160  00000+0  00000+0 0  9990
2 43700   0.0158 305.4974 0002420 314.4462 219.3808  1.00270689 11178
FOX-1CLIFF (AO-95)      
1 43770U 18099N   21324.42271736  .00000583  00000+0  57689-4 0  9996
2 43770  97.6495  31.0440 0012956 254.4409 105.5382 14.95551356161765
ITASAT 1                
1 43786U 18099AE  21323.91124694  .00000153  00000+0  18840-4 0  9995
2 43786  97.6514  31.3308 0013830 248.7358 111.2387 14.95811003161724
JY1SAT (JO-97)          
1 43803U 18099AX  21324.44940235  .00000522  00000+0  51456-4 0  9991
2 43803  97.6473  31.5947 0013854 246.1731 113.8038 14.96105354161819
UWE-4                   
1 43880U 18111E   21323.99372225  .00000388  00000+0  38572-4 0  9992
2 43880  97.6768 228.9870 0011239 307.6136  52.4065 14.97126230156353
NEXUS (FO-99)           
1 43937U 19003F   21324.36956349  .00003092  00000+0  11950-3 0  9998
2 43937  97.1584   1.2336 0022713 174.6907 185.4577 15.26730558158043
PSAT2 (NO-104)          
1 44354U 19036R   21323.89642347  .00023318  00000+0  28385-3 0  9998
2 44354  28.5247 166.3466 0299859 168.3802 192.3899 15.20294654132580
BRICSAT2 (NO-103)       
1 44355U 19036S   21324.05900143  .00046061 -60451-5  37777-3 0  9997
2 44355  28.5253  88.9374 0206277 294.7106  63.2152 15.45504148133373
JAISAT-1                
1 44419U 19038F   21324.14770341  .00001615  00000+0  91052-4 0  9995
2 44419  97.6097 288.5054 0021960 131.8696 228.4414 15.14453939131358
DUCHIFAT-3              
1 44854U 19089C   21324.53194150  .00001043  00000+0  88965-4 0  9999
2 44854  36.9643 257.4452 0008976 316.2187  43.7852 14.99804048106547
CAS-6 (TO-108)          
1 44881U 19093C   21324.42012355  .00000122  00000+0  22288-4 0  9991
2 44881  97.9138  41.4595 0015801 141.6152 218.6188 14.81511557103823
RS-44 & BREEZE-KM R/B   
1 44909U 19096E   21323.81962401  .00000031  00000+0  73273-4 0  9992
2 44909  82.5238   9.5783 0218521  89.9112 272.7027 12.79711249 88698
ORBITAL FACTORY 2 (OF-2)
1 45113U 19071C   21324.50232409  .00005583  00000+0  15914-3 0  9992
2 45113  51.6424   0.0500 0011318 133.6922 226.5001 15.37596136101164
HUSKYSAT-1 (HO-107)     
1 45119U 19071J   21324.12687420  .00004640  00000+0  13463-3 0  9993
2 45119  51.6417   1.2823 0010931 128.8457 231.3504 15.37469394101103
BY70-2                  
1 45857U 20042B   21324.09394092  .00001801  00000+0  25895-3 0  9996
2 45857  97.9743  38.1919 0012077  77.0396 283.2172 14.77581677 74526
SALSAT                  
1 46495U 20068K   21323.92428626  .00000144  00000+0  15061-4 0  9999
2 46495  97.7047 260.6025 0015551 268.6026  91.3422 15.03660240 62693
BY70-3                  
1 46839U 20079N   21324.44042914  .00005166  00000+0  15304-3 0  9991
2 46839  97.2271  35.2128 0007257  21.0471  34.8236 15.35269199 58129
RADFXSAT-2 (AO-109)     
1 47311U 21002C   21323.85909740  .00002179  00000+0  10383-3 0  9990
2 47311  60.6864  69.1624 0036773 126.7853 233.6618 15.22420198 46535
UVSQ-SAT                
1 47438U 21006AB  21324.09532837  .00001433  00000+0  83293-4 0  9993
2 47438  97.4689  22.4119 0011047 281.9029  78.0964 15.13643563 45598
DIY-1 (ARDUIQUBE)       
1 47963U 21022AH  21323.99427009  .00003264  00000+0  21309-3 0  9999
2 47963  97.5460 223.5427 0020212 128.7253 231.5786 15.08379840 35333
